DONGPO 10               
1 54689U 22167H   26141.26402899  .00007665  00000+0  23672-3 0  9990
2 54689  97.6933 310.2785 0004839 193.5411 166.5702 15.33840019191232
JILIN-1 GAOFEN 03D48    
1 54695U 22167P   26141.27492735  .00008028  00000+0  24205-3 0  9993
2 54695  97.6866 309.6594 0006103 200.9313 159.1681 15.34578429191265
STAR VIBE               
1 55009U 23001A   26141.24336875  .00010043  00000+0  23910-3 0  9992
2 55009  97.3179 205.6126 0005509 193.7216 166.3882 15.41797636188074
BRO-8                   
1 55011U 23001C   26141.28925263  .00021414  00000+0  42119-3 0  9990
2 55011  97.3222 206.1195 0005814 200.7587 159.3428 15.47272001188042
CONNECTA T1.2           
1 55012U 23001D   26141.24412198  .00027807  00000+0  52161-3 0  9995
2 55012  97.3282 211.4963 0006656 178.5909 181.5362 15.48585028188373
BIRKELAND               
1 55015U 23001G   26141.24261918  .00006460  00000+0  16638-3 0  9991
2 55015  97.3350 209.1525 0006674 187.0741 173.0412 15.39549336188205
ION SCV-008             
1 55051U 23001AU  26141.26431809  .00004714  00000+0  17374-3 0  9999
2 55051  97.5695 237.1421 0016482 107.1735 253.1310 15.28201391187221
ION SCV-007             
1 55060U 23001BD  26141.17722228  .00000272  00000+0  45264-4 0  9992
2 55060  97.9020 204.7262 0013651  66.3782 293.8861 14.77525051182269
HUYGENS                 
1 55093U 23001CN  26141.24270395  .00006522  00000+0  16779-3 0  9991
2 55093  97.3256 208.4172 0010090 170.3446 189.7996 15.39547639188227
SHARJAHSAT-1            
1 55104U 23001CZ  26141.23076802  .00013651  00000+0  26296-3 0  9996
2 55104  97.3178 209.6436 0006011 182.8394 177.2824 15.47973208188324
HORUS 1                 
1 55690U 23025A   26141.28826309  .00004147  00000+0  17785-3 0  9995
2 55690  97.3463 216.4471 0001120 135.8231 224.3096 15.23277185179959
HORUS 2                 
1 55844U 23032A   26141.25812772  .00004051  00000+0  17289-3 0  9993
2 55844  97.3534 217.1972 0003138 130.5184 229.6327 15.23459408177383
GLOBAL-19               
1 55982U 23041B   26140.89563882  .00009832  00000+0  26009-3 0  9992
2 55982  42.0028   1.1126 0005557 163.3711 196.7312 15.38430971177726
BRO-9                   
1 56185U 23054H   26141.31278450  .00202980  00000+0  88193-3 0  9995
2 56185  97.2970  57.7644 0007892 117.6355 242.5717 15.84247007174815
ION SCV-010             
1 56192U 23054Q   26141.21066791  .00003225  00000+0  12836-3 0  9997
2 56192  97.3810  31.0560 0011339 305.2250  54.7926 15.25930441172087
TELEOS-2                
1 56310U 23057C   26141.29559919  .00002755  00000+0  17767-3 0  9994
2 56310   9.9892  39.9734 0000923 260.1874  99.8236 14.96370491168760
SNIPE 4                 
1 56744U 23072B   26141.27948769  .00014704  00000+0  35610-3 0  9999
2 56744  97.5277 346.4516 0006875  71.5049 288.6944 15.41180322165961
SNIPE 2                 
1 56745U 23072C   26141.26847078  .00019353  00000+0  40669-3 0  9995
2 56745  97.5271 349.3038 0006405  96.0811 264.1167 15.45359031166084
2023-072G               
1 56749U 23072G   26141.26737390  .00020447  00000+0  38006-3 0  9992
2 56749  97.4929 348.0790 0005520  87.8288 272.3594 15.48919126166299
GEISAT PRECURSOR        
1 56934U 23084C   26141.28639248  .00005441  00000+0  16663-3 0  9998
2 56934  97.6194 281.3684 0007168  85.9830 274.2232 15.34235652163404
BLACKJACK ACES-3        
1 56950U 23084U   26141.15062294  .00003189  00000+0  15900-3 0  9993
2 56950  97.6178 276.1460 0004067  99.2389 260.9305 15.18281654163060
BLACKJACK ACES-2        
1 56955U 23084Z   26141.09124759  .00003723  00000+0  18537-3 0  9999
2 56955  97.6176 276.1710 0002208  91.3149 268.8338 15.18224296163065
BLACKJACK ACES-1        
1 56956U 23084AA  26141.27693380  .00004536  00000+0  22517-3 0  9997
2 56956  97.6167 276.1351 0001510  94.7463 265.3943 15.18210043112814
ION SCV-011             
1 56957U 23084AB  26141.22917696  .00003798  00000+0  13981-3 0  9996
2 56957  98.1385 326.0172 0008375 126.2415 233.9597 15.28547762161691
GHOST-3                 
1 56958U 23084AC  26140.93883855  .00012277  00000+0  24568-3 0  9998
2 56958  97.6191 288.0755 0006658  43.1329 317.0441 15.46900962163800
TOMORROW-R2             
1 56962U 23084AG  26140.99393172  .00155610  11079-4  50680-3 0  9993
2 56962  97.5955 301.6571 0002857 268.3732  91.7213 15.90717869164711
AFR-1                   
1 56964U 23084AJ  26141.25931301  .00003410  00000+0  12638-3 0  9995
2 56964  97.6241 277.3136 0011969  76.8973 283.3601 15.28293374163115
METEOR-M2 3             
1 57166U 23091A   26141.32851392 -.00000014  00000+0  12575-4 0  9996
2 57166  98.6097 196.8537 0002910 239.0757 121.0137 14.24044204150691
UMKA 1 (RS40S)          
1 57172U 23091G   26141.24605455  .00004353  00000+0  20226-3 0  9991
2 57172  97.5062 200.0515 0012198 206.5795 153.4816 15.20466936159916
2023-091H               
1 57173U 23091H   26141.27329659  .00007741  00000+0  28599-3 0  9999
2 57173  97.5057 204.2587 0009653 199.1934 160.8943 15.27979119160194
