OBJECT_NAME,OBJECT_ID,EPOCH,MEAN_MOTION,ECCENTRICITY,INCLINATION,RA_OF_ASC_NODE,ARG_OF_PERICENTER,MEAN_ANOMALY,EPHEMERIS_TYPE,CLASSIFICATION_TYPE,NORAD_CAT_ID,ELEMENT_SET_NO,REV_AT_EPOCH,BSTAR,MEAN_MOTION_DOT,MEAN_MOTION_DDOT
DONGPO 10,2022-167H,2026-05-21T06:20:12.104736,15.33840019,.00048396,97.6933,310.2785,193.5411,166.5702,0,U,54689,999,19123,.23671613E-3,.7665E-4,0
JILIN-1 GAOFEN 03D48,2022-167P,2026-05-21T06:35:53.723040,15.34578429,.0006103,97.6866,309.6594,200.9313,159.1681,0,U,54695,999,19126,.24205271E-3,.8028E-4,0
STAR VIBE,2023-001A,2026-05-21T05:50:27.060000,15.41797636,.00055096,97.3179,205.6126,193.7216,166.3882,0,U,55009,999,18807,.23909584E-3,.10043E-3,0
BRO-8,2023-001C,2026-05-21T06:56:31.427232,15.47272001,.00058146,97.3222,206.1195,200.7587,159.3428,0,U,55011,999,18804,.4211923E-3,.21414E-3,0
CONNECTA T1.2,2023-001D,2026-05-21T05:51:32.139072,15.48585028,.00066568,97.3282,211.4963,178.5909,181.5362,0,U,55012,999,18837,.52160874E-3,.27807E-3,0
BIRKELAND,2023-001G,2026-05-21T05:49:22.297152,15.39549336,.00066748,97.3350,209.1525,187.0741,173.0412,0,U,55015,999,18820,.16637888E-3,.646E-4,0
ION SCV-008,2023-001AU,2026-05-21T06:20:37.082976,15.28201391,.00164827,97.5695,237.1421,107.1735,253.1310,0,U,55051,999,18722,.173739E-3,.4714E-4,0
ION SCV-007,2023-001BD,2026-05-21T04:15:12.004992,14.77525051,.0013651,97.9020,204.7262,66.3782,293.8861,0,U,55060,999,18226,.45263665E-4,.272E-5,0
HUYGENS,2023-001CN,2026-05-21T05:49:29.621280,15.39547639,.001009,97.3256,208.4172,170.3446,189.7996,0,U,55093,999,18822,.16779031E-3,.6522E-4,0
SHARJAHSAT-1,2023-001CZ,2026-05-21T05:32:18.356928,15.47973208,.00060115,97.3178,209.6436,182.8394,177.2824,0,U,55104,999,18832,.26295825E-3,.13651E-3,0
HORUS 1,2023-025A,2026-05-21T06:55:05.930976,15.23277185,.000112,97.3463,216.4471,135.8231,224.3096,0,U,55690,999,17995,.17784917E-3,.4147E-4,0
HORUS 2,2023-032A,2026-05-21T06:11:42.235008,15.23459408,.00031382,97.3534,217.1972,130.5184,229.6327,0,U,55844,999,17738,.17289015E-3,.4051E-4,0
GLOBAL-19,2023-041B,2026-05-20T21:29:43.194048,15.38430971,.00055578,42.0028,1.1126,163.3711,196.7312,0,U,55982,999,17772,.26008567E-3,.9832E-4,0
BRO-9,2023-054H,2026-05-21T07:30:24.580800,15.84247007,.0007892,97.2970,57.7644,117.6355,242.5717,0,U,56185,999,17481,.88193E-3,.20298E-2,0
ION SCV-010,2023-054Q,2026-05-21T05:03:21.707424,15.25930441,.00113396,97.3810,31.0560,305.2250,54.7926,0,U,56192,999,17208,.12835926E-3,.3225E-4,0
TELEOS-2,2023-057C,2026-05-21T07:05:39.770016,14.96370491,.0000923,9.9892,39.9734,260.1874,99.8236,0,U,56310,999,16876,.17767E-3,.2755E-4,0
SNIPE 4,2023-072B,2026-05-21T06:42:27.736416,15.41180322,.00068752,97.5277,346.4516,71.5049,288.6944,0,U,56744,999,16596,.35609563E-3,.14704E-3,0
SNIPE 2,2023-072C,2026-05-21T06:26:35.875392,15.45359031,.00064056,97.5271,349.3038,96.0811,264.1167,0,U,56745,999,16608,.40668851E-3,.19353E-3,0
2023-072G,2023-072G,2026-05-21T06:25:01.104960,15.48919126,.00055205,97.4929,348.0790,87.8288,272.3594,0,U,56749,999,16629,.38005943E-3,.20447E-3,0
GEISAT PRECURSOR,2023-084C,2026-05-21T06:52:24.310272,15.34235652,.00071688,97.6194,281.3684,85.9830,274.2232,0,U,56934,999,16340,.16663251E-3,.5441E-4,0
BLACKJACK ACES-3,2023-084U,2026-05-21T03:36:53.822016,15.18281654,.00040677,97.6178,276.1460,99.2389,260.9305,0,U,56950,999,16306,.15900031E-3,.3189E-4,0
BLACKJACK ACES-2,2023-084Z,2026-05-21T02:11:23.791776,15.18224296,.00022086,97.6176,276.1710,91.3149,268.8338,0,U,56955,999,16306,.18536814E-3,.3723E-4,0
BLACKJACK ACES-1,2023-084AA,2026-05-21T06:38:47.080320,15.18210043,.00015109,97.6167,276.1351,94.7463,265.3943,0,U,56956,999,11281,.22517124E-3,.4536E-4,0
ION SCV-011,2023-084AB,2026-05-21T05:30:00.889344,15.28547762,.00083758,98.1385,326.0172,126.2415,233.9597,0,U,56957,999,16169,.13980559E-3,.3798E-4,0
GHOST-3,2023-084AC,2026-05-20T22:31:55.650720,15.46900962,.0006658,97.6191,288.0755,43.1329,317.0441,0,U,56958,999,16380,.24567977E-3,.12277E-3,0
TOMORROW-R2,2023-084AG,2026-05-20T23:51:15.700608,15.90717869,.00028576,97.5955,301.6571,268.3732,91.7213,0,U,56962,999,16471,.5067979E-3,.15561E-2,.11079079E-4
AFR-1,2023-084AJ,2026-05-21T06:13:24.644064,15.28293374,.00119696,97.6241,277.3136,76.8973,283.3601,0,U,56964,999,16311,.12638123E-3,.341E-4,0
METEOR-M2 3,2023-091A,2026-05-21T07:53:03.602688,14.24044204,.00029101,98.6097,196.8537,239.0757,121.0137,0,U,57166,999,15069,.1257532E-4,-.14E-6,0
UMKA 1 (RS40S),2023-091G,2026-05-21T05:54:19.113120,15.20466936,.00121983,97.5062,200.0515,206.5795,153.4816,0,U,57172,999,15991,.20225669E-3,.4353E-4,0
2023-091H,2023-091H,2026-05-21T06:33:32.825376,15.27979119,.00096533,97.5057,204.2587,199.1934,160.8943,0,U,57173,999,16019,.28598725E-3,.7741E-4,0
